[{"OBJECT_NAME":"STARLINK-5770","OBJECT_ID":"2023-042AS","EPOCH":"2026-03-09T22:00:01.999584","MEAN_MOTION":15.08680483,"ECCENTRICITY":0.00015485,"INCLINATION":43,"RA_OF_ASC_NODE":41.7608,"ARG_OF_PERICENTER":288.3925,"MEAN_ANOMALY":145.2571,"EPHEMERIS_TYPE":0,"CLASSIFICATION_TYPE":"U","NORAD_CAT_ID":56026,"ELEMENT_SET_NO":999,"REV_AT_EPOCH":573,"BSTAR":0.0037328186,"MEAN_MOTION_DOT":0.00059794,"MEAN_MOTION_DDOT":0},{"OBJECT_NAME":"DELTA 2 R\/B(1)","OBJECT_ID":"1998-061C","EPOCH":"2026-03-09T09:46:57.052992","MEAN_MOTION":14.43796455,"ECCENTRICITY":0.03053372,"INCLINATION":31.4328,"RA_OF_ASC_NODE":172.9373,"ARG_OF_PERICENTER":338.6516,"MEAN_ANOMALY":20.1611,"EPHEMERIS_TYPE":0,"CLASSIFICATION_TYPE":"U","NORAD_CAT_ID":25510,"ELEMENT_SET_NO":999,"REV_AT_EPOCH":43720,"BSTAR":0.00018891877,"MEAN_MOTION_DOT":1.226e-5,"MEAN_MOTION_DDOT":0}]
